FENGYUN 1C DEB          
1 38500U 99025ESK 17345.12487020  .00001124  00000-0  11170-2 0  9995
2 38500  98.6477 311.3339 0228969 118.8069 243.6278 13.69028599357819
